[{"OBJECT_NAME":"STARLINK-4442","OBJECT_ID":"2022-099R","EPOCH":"2026-03-09T22:38:47.936832","MEAN_MOTION":15.05610071,"ECCENTRICITY":0.00014944,"INCLINATION":97.6042,"RA_OF_ASC_NODE":191.4538,"ARG_OF_PERICENTER":88.5529,"MEAN_ANOMALY":271.5869,"EPHEMERIS_TYPE":0,"CLASSIFICATION_TYPE":"U","NORAD_CAT_ID":53480,"ELEMENT_SET_NO":999,"REV_AT_EPOCH":19608,"BSTAR":0.00075477308,"MEAN_MOTION_DOT":0.00010835,"MEAN_MOTION_DDOT":0},{"OBJECT_NAME":"SL-8 DEB","OBJECT_ID":"1981-041D","EPOCH":"2026-03-09T21:47:25.057824","MEAN_MOTION":15.02958497,"ECCENTRICITY":0.00072626,"INCLINATION":74.0316,"RA_OF_ASC_NODE":15.8034,"ARG_OF_PERICENTER":178.7148,"MEAN_ANOMALY":237.7014,"EPHEMERIS_TYPE":0,"CLASSIFICATION_TYPE":"U","NORAD_CAT_ID":14346,"ELEMENT_SET_NO":999,"REV_AT_EPOCH":27979,"BSTAR":0.0011219118,"MEAN_MOTION_DOT":0.00015083,"MEAN_MOTION_DDOT":0}]
